{
"type": "FeatureCollection",
"name": "chennai_institutions",
"crs": { "type": "name", "properties": { "name": "urn:ogc:def:crs:OGC:1.3:CRS84" } },
"features": [
{ "type": "Feature", "properties": { "name": "Loyola College", "amenity": "college", "lat": 13.0604, "lon": 80.2336 }, "geometry": { "type": "Point", "coordinates": [ 80.2336, 13.0604 ] } },
{ "type": "Feature", "properties": { "name": "Stella Maris College", "amenity": "college", "lat": 13.0473, "lon": 80.2505 }, "geometry": { "type": "Point", "coordinates": [ 80.2505, 13.0473 ] } },
{ "type": "Feature", "properties": { "name": "Presidency College", "amenity": "college", "lat": 13.058, "lon": 80.2825 }, "geometry": { "type": "Point", "coordinates": [ 80.2825, 13.058 ] } },
{ "type": "Feature", "properties": { "name": "Madras Medical College (MMC)", "amenity": "college", "lat": 13.0802, "lon": 80.2783 }, "geometry": { "type": "Point", "coordinates": [ 80.2783, 13.0802 ] } },
{ "type": "Feature", "properties": { "name": "Ethiraj College for Women", "amenity": "college", "lat": 13.062, "lon": 80.258 }, "geometry": { "type": "Point", "coordinates": [ 80.258, 13.062 ] } },
{ "type": "Feature", "properties": { "name": "Women's Christian College (WCC)", "amenity": "college", "lat": 13.0645, "lon": 80.2435 }, "geometry": { "type": "Point", "coordinates": [ 80.2435, 13.0645 ] } },
{ "type": "Feature", "properties": { "name": "Pachaiyappa's College", "amenity": "college", "lat": 13.0735, "lon": 80.23 }, "geometry": { "type": "Point", "coordinates": [ 80.23, 13.0735 ] } },
{ "type": "Feature", "properties": { "name": "MOP Vaishnav College", "amenity": "college", "lat": 13.058, "lon": 80.245 }, "geometry": { "type": "Point", "coordinates": [ 80.245, 13.058 ] } },
{ "type": "Feature", "properties": { "name": "Don Bosco Matriculation School, Egmore", "amenity": "school", "lat": 13.072, "lon": 80.258 }, "geometry": { "type": "Point", "coordinates": [ 80.258, 13.072 ] } },
{ "type": "Feature", "properties": { "name": "DAV Boys Senior Secondary, Gopalapuram", "amenity": "school", "lat": 13.047, "lon": 80.258 }, "geometry": { "type": "Point", "coordinates": [ 80.258, 13.047 ] } },
{ "type": "Feature", "properties": { "name": "Church Park (Sacred Heart)", "amenity": "school", "lat": 13.0585, "lon": 80.2545 }, "geometry": { "type": "Point", "coordinates": [ 80.2545, 13.0585 ] } },
{ "type": "Feature", "properties": { "name": "Good Shepherd Convent", "amenity": "school", "lat": 13.052, "lon": 80.245 }, "geometry": { "type": "Point", "coordinates": [ 80.245, 13.052 ] } },
{ "type": "Feature", "properties": { "name": "Madras Veterinary College", "amenity": "college", "lat": 13.086, "lon": 80.2605 }, "geometry": { "type": "Point", "coordinates": [ 80.2605, 13.086 ] } },
{ "type": "Feature", "properties": { "name": "Vidyodaya Schools, T Nagar", "amenity": "school", "lat": 13.0435, "lon": 80.24 }, "geometry": { "type": "Point", "coordinates": [ 80.24, 13.0435 ] } },
{ "type": "Feature", "properties": { "name": "Ramakrishna Mission Vivekananda College", "amenity": "college", "lat": 13.0325, "lon": 80.267 }, "geometry": { "type": "Point", "coordinates": [ 80.267, 13.0325 ] } },
{ "type": "Feature", "properties": { "name": "IIT Madras", "amenity": "university", "lat": 12.9915, "lon": 80.2337 }, "geometry": { "type": "Point", "coordinates": [ 80.2337, 12.9915 ] } },
{ "type": "Feature", "properties": { "name": "Anna University (Guindy)", "amenity": "university", "lat": 13.0102, "lon": 80.2359 }, "geometry": { "type": "Point", "coordinates": [ 80.2359, 13.0102 ] } },
{ "type": "Feature", "properties": { "name": "Guru Nanak College", "amenity": "college", "lat": 12.977, "lon": 80.218 }, "geometry": { "type": "Point", "coordinates": [ 80.218, 12.977 ] } },
{ "type": "Feature", "properties": { "name": "Chettinad Vidyashram, RA Puram", "amenity": "school", "lat": 13.024, "lon": 80.265 }, "geometry": { "type": "Point", "coordinates": [ 80.265, 13.024 ] } },
{ "type": "Feature", "properties": { "name": "St. Bede's, Santhome", "amenity": "school", "lat": 13.033, "lon": 80.278 }, "geometry": { "type": "Point", "coordinates": [ 80.278, 13.033 ] } },
{ "type": "Feature", "properties": { "name": "Kendriya Vidyalaya, IIT Campus", "amenity": "school", "lat": 12.993, "lon": 80.238 }, "geometry": { "type": "Point", "coordinates": [ 80.238, 12.993 ] } },
{ "type": "Feature", "properties": { "name": "Vana Vani Matriculation, IIT", "amenity": "school", "lat": 12.989, "lon": 80.232 }, "geometry": { "type": "Point", "coordinates": [ 80.232, 12.989 ] } },
{ "type": "Feature", "properties": { "name": "National Institute of Fashion Technology (NIFT)", "amenity": "college", "lat": 12.9896, "lon": 80.245 }, "geometry": { "type": "Point", "coordinates": [ 80.245, 12.9896 ] } },
{ "type": "Feature", "properties": { "name": "Madras Christian College (MCC)", "amenity": "college", "lat": 12.9213, "lon": 80.1218 }, "geometry": { "type": "Point", "coordinates": [ 80.1218, 12.9213 ] } },
{ "type": "Feature", "properties": { "name": "BS Abdur Rahman Crescent Institute", "amenity": "university", "lat": 12.878, "lon": 80.084 }, "geometry": { "type": "Point", "coordinates": [ 80.084, 12.878 ] } },
{ "type": "Feature", "properties": { "name": "Vels University, Pallavaram", "amenity": "university", "lat": 12.955, "lon": 80.155 }, "geometry": { "type": "Point", "coordinates": [ 80.155, 12.955 ] } },
{ "type": "Feature", "properties": { "name": "Sri Sai Ram Engineering College", "amenity": "college", "lat": 12.96, "lon": 80.055 }, "geometry": { "type": "Point", "coordinates": [ 80.055, 12.96 ] } },
{ "type": "Feature", "properties": { "name": "Madras Institute of Technology (MIT)", "amenity": "college", "lat": 12.948, "lon": 80.14 }, "geometry": { "type": "Point", "coordinates": [ 80.14, 12.948 ] } },
{ "type": "Feature", "properties": { "name": "SDNB Vaishnav College for Women", "amenity": "college", "lat": 12.951, "lon": 80.138 }, "geometry": { "type": "Point", "coordinates": [ 80.138, 12.951 ] } },
{ "type": "Feature", "properties": { "name": "Sita Devi Garodia Hindu Vidyalaya", "amenity": "school", "lat": 12.926, "lon": 80.111 }, "geometry": { "type": "Point", "coordinates": [ 80.111, 12.926 ] } },
{ "type": "Feature", "properties": { "name": "Sathyabama Institute of Science and Technology", "amenity": "university", "lat": 12.873, "lon": 80.22 }, "geometry": { "type": "Point", "coordinates": [ 80.22, 12.873 ] } },
{ "type": "Feature", "properties": { "name": "St. Joseph's College of Engineering", "amenity": "college", "lat": 12.868, "lon": 80.218 }, "geometry": { "type": "Point", "coordinates": [ 80.218, 12.868 ] } },
{ "type": "Feature", "properties": { "name": "KCG College of Technology", "amenity": "college", "lat": 12.9211, "lon": 80.235 }, "geometry": { "type": "Point", "coordinates": [ 80.235, 12.9211 ] } },
{ "type": "Feature", "properties": { "name": "MNM Jain Engineering College", "amenity": "college", "lat": 12.936, "lon": 80.234 }, "geometry": { "type": "Point", "coordinates": [ 80.234, 12.936 ] } },
{ "type": "Feature", "properties": { "name": "Jeppiaar Engineering College", "amenity": "college", "lat": 12.871, "lon": 80.22 }, "geometry": { "type": "Point", "coordinates": [ 80.22, 12.871 ] } },
{ "type": "Feature", "properties": { "name": "BVM Global School, Perungudi", "amenity": "school", "lat": 12.963, "lon": 80.245 }, "geometry": { "type": "Point", "coordinates": [ 80.245, 12.963 ] } },
{ "type": "Feature", "properties": { "name": "Abacus Montessori School", "amenity": "school", "lat": 12.955, "lon": 80.242 }, "geometry": { "type": "Point", "coordinates": [ 80.242, 12.955 ] } },
{ "type": "Feature", "properties": { "name": "SBOA School and Junior College", "amenity": "school", "lat": 13.088, "lon": 80.2 }, "geometry": { "type": "Point", "coordinates": [ 80.2, 13.088 ] } },
{ "type": "Feature", "properties": { "name": "Chennai Public School, Anna Nagar", "amenity": "school", "lat": 13.089, "lon": 80.193 }, "geometry": { "type": "Point", "coordinates": [ 80.193, 13.089 ] } },
{ "type": "Feature", "properties": { "name": "DG Vaishnav College", "amenity": "college", "lat": 13.0768, "lon": 80.2155 }, "geometry": { "type": "Point", "coordinates": [ 80.2155, 13.0768 ] } },
{ "type": "Feature", "properties": { "name": "Velammal Matriculation, Mogappair", "amenity": "school", "lat": 13.083, "lon": 80.18 }, "geometry": { "type": "Point", "coordinates": [ 80.18, 13.083 ] } },
{ "type": "Feature", "properties": { "name": "SRM University, Ramapuram", "amenity": "university", "lat": 13.0334, "lon": 80.1804 }, "geometry": { "type": "Point", "coordinates": [ 80.1804, 13.0334 ] } },
{ "type": "Feature", "properties": { "name": "PSBB Millennium School, Porur", "amenity": "school", "lat": 13.028, "lon": 80.155 }, "geometry": { "type": "Point", "coordinates": [ 80.155, 13.028 ] } },
{ "type": "Feature", "properties": { "name": "Saveetha Dental College", "amenity": "college", "lat": 13.045, "lon": 80.138 }, "geometry": { "type": "Point", "coordinates": [ 80.138, 13.045 ] } },
{ "type": "Feature", "properties": { "name": "Panimalar Engineering College", "amenity": "college", "lat": 13.048, "lon": 80.057 }, "geometry": { "type": "Point", "coordinates": [ 80.057, 13.048 ] } },
{ "type": "Feature", "properties": { "name": "SA Engineering College", "amenity": "college", "lat": 13.104, "lon": 80.125 }, "geometry": { "type": "Point", "coordinates": [ 80.125, 13.104 ] } },
{ "type": "Feature", "properties": { "name": "Maharishi Vidya Mandir, Chetpet", "amenity": "school", "lat": 13.073, "lon": 80.24 }, "geometry": { "type": "Point", "coordinates": [ 80.24, 13.073 ] } },
{ "type": "Feature", "properties": { "name": "PSBB, KK Nagar", "amenity": "school", "lat": 13.038, "lon": 80.198 }, "geometry": { "type": "Point", "coordinates": [ 80.198, 13.038 ] } },
{ "type": "Feature", "properties": { "name": "Meenakshi College for Women", "amenity": "college", "lat": 13.053, "lon": 80.222 }, "geometry": { "type": "Point", "coordinates": [ 80.222, 13.053 ] } },
{ "type": "Feature", "properties": { "name": "Vellore Institute of Technology (VIT) Chennai", "amenity": "university", "lat": 12.8406, "lon": 80.1534 }, "geometry": { "type": "Point", "coordinates": [ 80.1534, 12.8406 ] } },
{ "type": "Feature", "properties": { "name": "Stanley Medical College", "amenity": "college", "lat": 13.105, "lon": 80.285 }, "geometry": { "type": "Point", "coordinates": [ 80.285, 13.105 ] } },
{ "type": "Feature", "properties": { "name": "St. Anne's Girls School, Royapuram", "amenity": "school", "lat": 13.111, "lon": 80.293 }, "geometry": { "type": "Point", "coordinates": [ 80.293, 13.111 ] } },
{ "type": "Feature", "properties": { "name": "Velammal Engineering College, Surapet", "amenity": "college", "lat": 13.143, "lon": 80.183 }, "geometry": { "type": "Point", "coordinates": [ 80.183, 13.143 ] } },
{ "type": "Feature", "properties": { "name": "Government Kilpauk Medical College", "amenity": "college", "lat": 13.0805, "lon": 80.241 }, "geometry": { "type": "Point", "coordinates": [ 80.241, 13.0805 ] } },
{ "type": "Feature", "properties": { "name": "Bhavan's Rajaji Vidyashram, Kilpauk", "amenity": "school", "lat": 13.085, "lon": 80.242 }, "geometry": { "type": "Point", "coordinates": [ 80.242, 13.085 ] } },
{ "type": "Feature", "properties": { "name": "Sriram Engineering College, Veppampattu", "amenity": "college", "lat": 13.136, "lon": 80.053 }, "geometry": { "type": "Point", "coordinates": [ 80.053, 13.136 ] } },
{ "type": "Feature", "properties": { "name": "Sir Theagaraya College", "amenity": "college", "lat": 13.116, "lon": 80.283 }, "geometry": { "type": "Point", "coordinates": [ 80.283, 13.116 ] } },
{ "type": "Feature", "properties": { "name": "Don Bosco School, Perambur", "amenity": "school", "lat": 13.113, "lon": 80.246 }, "geometry": { "type": "Point", "coordinates": [ 80.246, 13.113 ] } },
{ "type": "Feature", "properties": { "name": "Chennai Public School, Thirumazhisai", "amenity": "school", "lat": 13.055, "lon": 80.052 }, "geometry": { "type": "Point", "coordinates": [ 80.052, 13.055 ] } }
]
}
