{
"type": "FeatureCollection",
"name": "chennai_institutions_cleaned",
"crs": { "type": "name", "properties": { "name": "urn:ogc:def:crs:OGC:1.3:CRS84" } },
"features": [
{ "type": "Feature", "properties": { "name": "Loyola College", "amenity": "college" }, "geometry": { "type": "Point", "coordinates": [ 80.2336, 13.0604 ] } },
{ "type": "Feature", "properties": { "name": "Stella Maris College", "amenity": "college" }, "geometry": { "type": "Point", "coordinates": [ 80.2505, 13.0473 ] } },
{ "type": "Feature", "properties": { "name": "Presidency College", "amenity": "college" }, "geometry": { "type": "Point", "coordinates": [ 80.2825, 13.058 ] } },
{ "type": "Feature", "properties": { "name": "Madras Medical College (MMC)", "amenity": "college" }, "geometry": { "type": "Point", "coordinates": [ 80.2783, 13.0802 ] } },
{ "type": "Feature", "properties": { "name": "Ethiraj College for Women", "amenity": "college" }, "geometry": { "type": "Point", "coordinates": [ 80.258, 13.062 ] } },
{ "type": "Feature", "properties": { "name": "Women's Christian College (WCC)", "amenity": "college" }, "geometry": { "type": "Point", "coordinates": [ 80.2435, 13.0645 ] } },
{ "type": "Feature", "properties": { "name": "Pachaiyappa's College", "amenity": "college" }, "geometry": { "type": "Point", "coordinates": [ 80.23, 13.0735 ] } },
{ "type": "Feature", "properties": { "name": "MOP Vaishnav College", "amenity": "college" }, "geometry": { "type": "Point", "coordinates": [ 80.245, 13.058 ] } },
{ "type": "Feature", "properties": { "name": "Don Bosco Matriculation School, Egmore", "amenity": "school" }, "geometry": { "type": "Point", "coordinates": [ 80.258, 13.072 ] } },
{ "type": "Feature", "properties": { "name": "DAV Boys Senior Secondary, Gopalapuram", "amenity": "school" }, "geometry": { "type": "Point", "coordinates": [ 80.258, 13.047 ] } },
{ "type": "Feature", "properties": { "name": "Church Park (Sacred Heart)", "amenity": "school" }, "geometry": { "type": "Point", "coordinates": [ 80.2545, 13.0585 ] } },
{ "type": "Feature", "properties": { "name": "Good Shepherd Convent", "amenity": "school" }, "geometry": { "type": "Point", "coordinates": [ 80.245, 13.052 ] } },
{ "type": "Feature", "properties": { "name": "Madras Veterinary College", "amenity": "college" }, "geometry": { "type": "Point", "coordinates": [ 80.2605, 13.086 ] } },
{ "type": "Feature", "properties": { "name": "Vidyodaya Schools, T Nagar", "amenity": "school" }, "geometry": { "type": "Point", "coordinates": [ 80.24, 13.0435 ] } },
{ "type": "Feature", "properties": { "name": "Ramakrishna Mission Vivekananda College", "amenity": "college" }, "geometry": { "type": "Point", "coordinates": [ 80.267, 13.0325 ] } },
{ "type": "Feature", "properties": { "name": "IIT Madras", "amenity": "university" }, "geometry": { "type": "Point", "coordinates": [ 80.2337, 12.9915 ] } },
{ "type": "Feature", "properties": { "name": "Anna University (Guindy)", "amenity": "university" }, "geometry": { "type": "Point", "coordinates": [ 80.2359, 13.0102 ] } },
{ "type": "Feature", "properties": { "name": "Guru Nanak College", "amenity": "college" }, "geometry": { "type": "Point", "coordinates": [ 80.218, 12.977 ] } },
{ "type": "Feature", "properties": { "name": "Chettinad Vidyashram, RA Puram", "amenity": "school" }, "geometry": { "type": "Point", "coordinates": [ 80.265, 13.024 ] } },
{ "type": "Feature", "properties": { "name": "St. Bede's, Santhome", "amenity": "school" }, "geometry": { "type": "Point", "coordinates": [ 80.278, 13.033 ] } },
{ "type": "Feature", "properties": { "name": "Kendriya Vidyalaya, IIT Campus", "amenity": "school" }, "geometry": { "type": "Point", "coordinates": [ 80.238, 12.993 ] } },
{ "type": "Feature", "properties": { "name": "Vana Vani Matriculation, IIT", "amenity": "school" }, "geometry": { "type": "Point", "coordinates": [ 80.232, 12.989 ] } },
{ "type": "Feature", "properties": { "name": "National Institute of Fashion Technology (NIFT)", "amenity": "college" }, "geometry": { "type": "Point", "coordinates": [ 80.245, 12.9896 ] } },
{ "type": "Feature", "properties": { "name": "Madras Christian College (MCC)", "amenity": "college" }, "geometry": { "type": "Point", "coordinates": [ 80.1218, 12.9213 ] } },
{ "type": "Feature", "properties": { "name": "BS Abdur Rahman Crescent Institute", "amenity": "university" }, "geometry": { "type": "Point", "coordinates": [ 80.084, 12.878 ] } },
{ "type": "Feature", "properties": { "name": "Vels University, Pallavaram", "amenity": "university" }, "geometry": { "type": "Point", "coordinates": [ 80.155, 12.955 ] } },
{ "type": "Feature", "properties": { "name": "Sri Sai Ram Engineering College", "amenity": "college" }, "geometry": { "type": "Point", "coordinates": [ 80.055, 12.96 ] } },
{ "type": "Feature", "properties": { "name": "Madras Institute of Technology (MIT)", "amenity": "college" }, "geometry": { "type": "Point", "coordinates": [ 80.14, 12.948 ] } },
{ "type": "Feature", "properties": { "name": "SDNB Vaishnav College for Women", "amenity": "college" }, "geometry": { "type": "Point", "coordinates": [ 80.138, 12.951 ] } },
{ "type": "Feature", "properties": { "name": "Sita Devi Garodia Hindu Vidyalaya", "amenity": "school" }, "geometry": { "type": "Point", "coordinates": [ 80.111, 12.926 ] } },
{ "type": "Feature", "properties": { "name": "Sathyabama Institute of Science and Technology", "amenity": "university" }, "geometry": { "type": "Point", "coordinates": [ 80.22, 12.873 ] } },
{ "type": "Feature", "properties": { "name": "St. Joseph's College of Engineering", "amenity": "college" }, "geometry": { "type": "Point", "coordinates": [ 80.218, 12.868 ] } },
{ "type": "Feature", "properties": { "name": "KCG College of Technology", "amenity": "college" }, "geometry": { "type": "Point", "coordinates": [ 80.235, 12.9211 ] } },
{ "type": "Feature", "properties": { "name": "MNM Jain Engineering College", "amenity": "college" }, "geometry": { "type": "Point", "coordinates": [ 80.234, 12.936 ] } },
{ "type": "Feature", "properties": { "name": "Jeppiaar Engineering College", "amenity": "college" }, "geometry": { "type": "Point", "coordinates": [ 80.22, 12.871 ] } },
{ "type": "Feature", "properties": { "name": "BVM Global School, Perungudi", "amenity": "school" }, "geometry": { "type": "Point", "coordinates": [ 80.245, 12.963 ] } },
{ "type": "Feature", "properties": { "name": "Abacus Montessori School", "amenity": "school" }, "geometry": { "type": "Point", "coordinates": [ 80.242, 12.955 ] } },
{ "type": "Feature", "properties": { "name": "SBOA School and Junior College", "amenity": "school" }, "geometry": { "type": "Point", "coordinates": [ 80.2, 13.088 ] } },
{ "type": "Feature", "properties": { "name": "Chennai Public School, Anna Nagar", "amenity": "school" }, "geometry": { "type": "Point", "coordinates": [ 80.193, 13.089 ] } },
{ "type": "Feature", "properties": { "name": "DG Vaishnav College", "amenity": "college" }, "geometry": { "type": "Point", "coordinates": [ 80.2155, 13.0768 ] } },
{ "type": "Feature", "properties": { "name": "Velammal Matriculation, Mogappair", "amenity": "school" }, "geometry": { "type": "Point", "coordinates": [ 80.18, 13.083 ] } },
{ "type": "Feature", "properties": { "name": "SRM University, Ramapuram", "amenity": "university" }, "geometry": { "type": "Point", "coordinates": [ 80.1804, 13.0334 ] } },
{ "type": "Feature", "properties": { "name": "PSBB Millennium School, Porur", "amenity": "school" }, "geometry": { "type": "Point", "coordinates": [ 80.155, 13.028 ] } },
{ "type": "Feature", "properties": { "name": "Saveetha Dental College", "amenity": "college" }, "geometry": { "type": "Point", "coordinates": [ 80.138, 13.045 ] } },
{ "type": "Feature", "properties": { "name": "Panimalar Engineering College", "amenity": "college" }, "geometry": { "type": "Point", "coordinates": [ 80.057, 13.048 ] } },
{ "type": "Feature", "properties": { "name": "SA Engineering College", "amenity": "college" }, "geometry": { "type": "Point", "coordinates": [ 80.125, 13.104 ] } },
{ "type": "Feature", "properties": { "name": "Maharishi Vidya Mandir, Chetpet", "amenity": "school" }, "geometry": { "type": "Point", "coordinates": [ 80.24, 13.073 ] } },
{ "type": "Feature", "properties": { "name": "PSBB, KK Nagar", "amenity": "school" }, "geometry": { "type": "Point", "coordinates": [ 80.198, 13.038 ] } },
{ "type": "Feature", "properties": { "name": "Meenakshi College for Women", "amenity": "college" }, "geometry": { "type": "Point", "coordinates": [ 80.222, 13.053 ] } },
{ "type": "Feature", "properties": { "name": "Vellore Institute of Technology (VIT) Chennai", "amenity": "university" }, "geometry": { "type": "Point", "coordinates": [ 80.1534, 12.8406 ] } },
{ "type": "Feature", "properties": { "name": "Stanley Medical College", "amenity": "college" }, "geometry": { "type": "Point", "coordinates": [ 80.285, 13.105 ] } },
{ "type": "Feature", "properties": { "name": "St. Anne's Girls School, Royapuram", "amenity": "school" }, "geometry": { "type": "Point", "coordinates": [ 80.293, 13.111 ] } },
{ "type": "Feature", "properties": { "name": "Velammal Engineering College, Surapet", "amenity": "college" }, "geometry": { "type": "Point", "coordinates": [ 80.183, 13.143 ] } },
{ "type": "Feature", "properties": { "name": "Government Kilpauk Medical College", "amenity": "college" }, "geometry": { "type": "Point", "coordinates": [ 80.241, 13.0805 ] } },
{ "type": "Feature", "properties": { "name": "Bhavan's Rajaji Vidyashram, Kilpauk", "amenity": "school" }, "geometry": { "type": "Point", "coordinates": [ 80.242, 13.085 ] } },
{ "type": "Feature", "properties": { "name": "Sriram Engineering College, Veppampattu", "amenity": "college" }, "geometry": { "type": "Point", "coordinates": [ 80.053, 13.136 ] } },
{ "type": "Feature", "properties": { "name": "Sir Theagaraya College", "amenity": "college" }, "geometry": { "type": "Point", "coordinates": [ 80.283, 13.116 ] } },
{ "type": "Feature", "properties": { "name": "Don Bosco School, Perambur", "amenity": "school" }, "geometry": { "type": "Point", "coordinates": [ 80.246, 13.113 ] } },
{ "type": "Feature", "properties": { "name": "Chennai Public School, Thirumazhisai", "amenity": "school" }, "geometry": { "type": "Point", "coordinates": [ 80.052, 13.055 ] } }
]
}
